ORBCOMM FM33            
1 25983U 99065D   25114.73979129  .00002349  00000+0  78543-3 0  9993
2 25983  45.0278 253.0433 0009269 159.9690 200.1525 14.39869847328366
ORBCOMM FM36            
1 25984U 99065E   25114.91247719  .00002118  00000+0  74073-3 0  9995
2 25984  45.0400 343.3396 0003640  36.2093 323.9002 14.37974327326759
ORBCOMM FM35            
1 25985U 99065F   25114.85431932  .00001998  00000+0  71562-3 0  9996
2 25985  45.0406 348.2293 0003535 119.4230 240.6972 14.36966200327118
ORBCOMM FM34            
1 25986U 99065G   25114.82139963  .00001776  00000+0  64091-3 0  9996
2 25986  45.0405 348.8676 0004223  69.4112 290.7189 14.37000401327228
ORBCOMM FM38            
1 33060U 08031A   25114.65107589  .00003700  00000+0  49855-3 0  9991
2 33060  48.4392 210.3396 0004989 177.8679 182.2258 14.81084247906814
ORBCOMM FM41            
1 33061U 08031B   25114.66600557  .00003680  00000+0  50063-3 0  9996
2 33061  48.4427 217.8635 0004021 163.6541 338.3438 14.80685425906302
ORBCOMM FM29            
1 33062U 08031C   25114.65262774  .00004017  00000+0  54286-3 0  9997
2 33062  48.4380 225.8007 0005740 159.7924 335.7402 14.80768553906219
ORBCOMM FM39            
1 33063U 08031D   25114.74123594  .00003789  00000+0  53095-3 0  9996
2 33063  48.4393 249.0707 0006512 130.4106 229.7378 14.79352259905881
